{"type": "FeatureCollection", "features": [ {"type": "Feature", "properties": {"norad_id": 37996, "name": "COSMOS 2251 DEB", "group": "cosmos-2251-debris", "lat": -18.717258721112316, "lon": 36.29215589318825, "alt_km": 946.1020529656707, "timestamp": "2025-12-08T10:52:03.346369+00:00", "meta": {"OBJECT_NAME": "COSMOS 2251 DEB", "OBJECT_ID": "1993-036BQX", "EPOCH": "2025-11-16T18:35:00.708864", "MEAN_MOTION": 14.09591608, "ECCENTRICITY": 0.02219827, "INCLINATION": 74.0658, "RA_OF_ASC_NODE": 248.8308, "ARG_OF_PERICENTER": 5.4709, "MEAN_ANOMALY": 354.8776, "EPHEMERIS_TYPE": 0, "CLASSIFICATION_TYPE": "U", "NORAD_CAT_ID": 37996, "ELEMENT_SET_NO": 999, "REV_AT_EPOCH": 55769, "BSTAR": 0.0096790999, "MEAN_MOTION_DOT": 0.00021331, "MEAN_MOTION_DDOT": 0}, "tle": {"line1": "1 37996U 93036BQX 25320.77431376  .00021331  00000+0  96791-2 0  9998", "line2": "2 37996  74.0658 248.8308 0221982   5.4709 354.8776 14.09591608557693"}}, "geometry": {"type": "Point", "coordinates": [36.29215589318825, -18.717258721112316]}}, {"type": "Feature", "properties": {"norad_id": 37998, "name": "COSMOS 2251 DEB", "group": "cosmos-2251-debris", "lat": 14.731200000704668, "lon": -112.58911180171488, "alt_km": 733.450693577166, "timestamp": "2025-12-08T10:52:03.346379+00:00", "meta": {"OBJECT_NAME": "COSMOS 2251 DEB", "OBJECT_ID": "1993-036BQZ", "EPOCH": "2025-12-07T01:34:33.386016", "MEAN_MOTION": 14.45444842, "ECCENTRICITY": 0.00199405, "INCLINATION": 74.0387, "RA_OF_ASC_NODE": 245.6796, "ARG_OF_PERICENTER": 320.6712, "MEAN_ANOMALY": 39.2997, "EPHEMERIS_TYPE": 0, "CLASSIFICATION_TYPE": "U", "NORAD_CAT_ID": 37998, "ELEMENT_SET_NO": 999, "REV_AT_EPOCH": 64205, "BSTAR": 0.00093558552, "MEAN_MOTION_DOT": 3.277e-05, "MEAN_MOTION_DDOT": 0}, "tle": {"line1": "1 37998U 93036BQZ 25341.06566419  .00003277  00000+0  93559-3 0  9991", "line2": "2 37998  74.0387 245.6796 0019940 320.6712  39.2997 14.45444842642056"}}, "geometry": {"type": "Point", "coordinates": [-112.58911180171488, 14.731200000704668]}}, {"type": "Feature", "properties": {"norad_id": 38001, "name": "COSMOS 2251 DEB", "group": "cosmos-2251-debris", "lat": 5.16855994814411, "lon": -40.70982647173549, "alt_km": 654.6546877539977, "timestamp": "2025-12-08T10:52:03.346389+00:00", "meta": {"OBJECT_NAME": "COSMOS 2251 DEB", "OBJECT_ID": "1993-036BRC", "EPOCH": "2025-12-07T21:46:57.258624", "MEAN_MOTION": 14.78989425, "ECCENTRICITY": 0.00653645, "INCLINATION": 74, "RA_OF_ASC_NODE": 141.8516, "ARG_OF_PERICENTER": 292.2113, "MEAN_ANOMALY": 221.278, "EPHEMERIS_TYPE": 0, "CLASSIFICATION_TYPE": "U", "NORAD_CAT_ID": 38001, "ELEMENT_SET_NO": 999, "REV_AT_EPOCH": 74636, "BSTAR": 0.0010003516, "MEAN_MOTION_DOT": 7.632e-05, "MEAN_MOTION_DDOT": 0}, "tle": {"line1": "1 38001U 93036BRC 25341.90760716  .00007632  00000+0  10004-2 0  9998", "line2": "2 38001  74.0000 141.8516 0065364 292.2113 221.2780 14.78989425746360"}}, "geometry": {"type": "Point", "coordinates": [-40.70982647173549, 5.16855994814411]}}, {"type": "Feature", "properties": {"norad_id": 38006, "name": "COSMOS 2251 DEB", "group": "cosmos-2251-debris", "lat": 12.806454897908683, "lon": -137.65511991512912, "alt_km": 793.0190863720727, "timestamp": "2025-12-08T10:52:03.346399+00:00", "meta": {"OBJECT_NAME": "COSMOS 2251 DEB", "OBJECT_ID": "1993-036BRH", "EPOCH": "2025-12-04T21:24:00.571392", "MEAN_MOTION": 14.45613673, "ECCENTRICITY": 0.0074849, "INCLINATION": 73.8488, "RA_OF_ASC_NODE": 52.8364, "ARG_OF_PERICENTER": 2.834, "MEAN_ANOMALY": 357.3225, "EPHEMERIS_TYPE": 0, "CLASSIFICATION_TYPE": "U", "NORAD_CAT_ID": 38006, "ELEMENT_SET_NO": 999, "REV_AT_EPOCH": 62846, "BSTAR": 0.0044211, "MEAN_MOTION_DOT": 0.00016183, "MEAN_MOTION_DDOT": 0}, "tle": {"line1": "1 38006U 93036BRH 25338.89167328  .00016183  00000+0  44211-2 0  9995", "line2": "2 38006  73.8488  52.8364 0074849   2.8340 357.3225 14.45613673628467"}}, "geometry": {"type": "Point", "coordinates": [-137.65511991512912, 12.806454897908683]}}, {"type": "Feature", "properties": {"norad_id": 38054, "name": "COSMOS 2251 DEB", "group": "cosmos-2251-debris", "lat": 47.952408859908985, "lon": 74.20678124804999, "alt_km": 1158.6732477512214, "timestamp": "2025-12-08T10:52:03.346410+00:00", "meta": {"OBJECT_NAME": "COSMOS 2251 DEB", "OBJECT_ID": "1993-036BRL", "EPOCH": "2025-12-06T19:35:06.065952", "MEAN_MOTION": 13.62293123, "ECCENTRICITY": 0.0360398, "INCLINATION": 73.9587, "RA_OF_ASC_NODE": 275.4844, "ARG_OF_PERICENTER": 254.7432, "MEAN_ANOMALY": 133.9151, "EPHEMERIS_TYPE": 0, "CLASSIFICATION_TYPE": "U", "NORAD_CAT_ID": 38054, "ELEMENT_SET_NO": 999, "REV_AT_EPOCH": 67099, "BSTAR": 0.0049752628, "MEAN_MOTION_DOT": 5.934e-05, "MEAN_MOTION_DDOT": 0}, "tle": {"line1": "1 38054U 93036BRL 25340.81604243  .00005934  00000+0  49753-2 0  9993", "line2": "2 38054  73.9587 275.4844 0360398 254.7432 133.9151 13.62293123670997"}}, "geometry": {"type": "Point", "coordinates": [74.20678124804999, 47.952408859908985]}}, {"type": "Feature", "properties": {"norad_id": 38055, "name": "COSMOS 2251 DEB", "group": "cosmos-2251-debris", "lat": 71.9489268220435, "lon": -26.456029647519102, "alt_km": 650.9367879133088, "timestamp": "2025-12-08T10:52:03.346420+00:00", "meta": {"OBJECT_NAME": "COSMOS 2251 DEB", "OBJECT_ID": "1993-036BRM", "EPOCH": "2025-12-06T22:44:42.352224", "MEAN_MOTION": 14.76877741, "ECCENTRICITY": 0.00656872, "INCLINATION": 74.009, "RA_OF_ASC_NODE": 218.1295, "ARG_OF_PERICENTER": 346.9333, "MEAN_ANOMALY": 31.8095, "EPHEMERIS_TYPE": 0, "CLASSIFICATION_TYPE": "U", "NORAD_CAT_ID": 38055, "ELEMENT_SET_NO": 999, "REV_AT_EPOCH": 60597, "BSTAR": 0.0013662663, "MEAN_MOTION_DOT": 9.93e-05, "MEAN_MOTION_DDOT": 0}, "tle": {"line1": "1 38055U 93036BRM 25340.94771241  .00009930  00000+0  13663-2 0  9992", "line2": "2 38055  74.0090 218.1295 0065687 346.9333  31.8095 14.76877741605979"}}, "geometry": {"type": "Point", "coordinates": [-26.456029647519102, 71.9489268220435]}}, {"type": "Feature", "properties": {"norad_id": 38060, "name": "COSMOS 2251 DEB", "group": "cosmos-2251-debris", "lat": 14.371211919268957, "lon": 119.33795053946817, "alt_km": 697.9045301766037, "timestamp": "2025-12-08T10:52:03.346431+00:00", "meta": {"OBJECT_NAME": "COSMOS 2251 DEB", "OBJECT_ID": "1993-036BRS", "EPOCH": "2025-11-30T16:46:11.567136", "MEAN_MOTION": 14.63742552, "ECCENTRICITY": 0.0057629, "INCLINATION": 74.0424, "RA_OF_ASC_NODE": 318.4162, "ARG_OF_PERICENTER": 67.815, "MEAN_ANOMALY": 292.9119, "EPHEMERIS_TYPE": 0, "CLASSIFICATION_TYPE": "U", "NORAD_CAT_ID": 38060, "ELEMENT_SET_NO": 999, "REV_AT_EPOCH": 71788, "BSTAR": 0.00051174098, "MEAN_MOTION_DOT": 2.701e-05, "MEAN_MOTION_DDOT": 0}, "tle": {"line1": "1 38060U 93036BRS 25334.69874499  .00002701  00000+0  51174-3 0  9991", "line2": "2 38060  74.0424 318.4162 0057629  67.8150 292.9119 14.63742552717884"}}, "geometry": {"type": "Point", "coordinates": [119.33795053946817, 14.371211919268957]}}, {"type": "Feature", "properties": {"norad_id": 38062, "name": "COSMOS 2251 DEB", "group": "cosmos-2251-debris", "lat": 16.528097834766548, "lon": -55.99164662647423, "alt_km": 578.8167208714149, "timestamp": "2025-12-08T10:52:03.346440+00:00", "meta": {"OBJECT_NAME": "COSMOS 2251 DEB", "OBJECT_ID": "1993-036BRU", "EPOCH": "2025-12-06T04:12:38.753856", "MEAN_MOTION": 14.94290132, "ECCENTRICITY": 0.00122346, "INCLINATION": 74.0094, "RA_OF_ASC_NODE": 303.7202, "ARG_OF_PERICENTER": 72.1633, "MEAN_ANOMALY": 298.7726, "EPHEMERIS_TYPE": 0, "CLASSIFICATION_TYPE": "U", "NORAD_CAT_ID": 38062, "ELEMENT_SET_NO": 999, "REV_AT_EPOCH": 62932, "BSTAR": 0.0035053507, "MEAN_MOTION_DOT": 0.00037877, "MEAN_MOTION_DDOT": 0}, "tle": {"line1": "1 38062U 93036BRU 25340.17544854  .00037877  00000+0  35054-2 0  9992", "line2": "2 38062  74.0094 303.7202 0012234  72.1633 298.7726 14.94290132629324"}}, "geometry": {"type": "Point", "coordinates": [-55.99164662647423, 16.528097834766548]}}, {"type": "Feature", "properties": {"norad_id": 38064, "name": "COSMOS 2251 DEB", "group": "cosmos-2251-debris", "lat": 11.792680826367347, "lon": -51.153299242591835, "alt_km": 703.0583855516525, "timestamp": "2025-12-08T10:52:03.346450+00:00", "meta": {"OBJECT_NAME": "COSMOS 2251 DEB", "OBJECT_ID": "1993-036BRW", "EPOCH": "2025-12-06T20:10:26.684832", "MEAN_MOTION": 14.56222427, "ECCENTRICITY": 0.00475228, "INCLINATION": 74.0217, "RA_OF_ASC_NODE": 135.3356, "ARG_OF_PERICENTER": 255.8276, "MEAN_ANOMALY": 103.7605, "EPHEMERIS_TYPE": 0, "CLASSIFICATION_TYPE": "U", "NORAD_CAT_ID": 38064, "ELEMENT_SET_NO": 999, "REV_AT_EPOCH": 71779, "BSTAR": 0.0017262128, "MEAN_MOTION_DOT": 7.728e-05, "MEAN_MOTION_DDOT": 0}, "tle": {"line1": "1 38064U 93036BRW 25340.84058663  .00007728  00000+0  17262-2 0  9999", "line2": "2 38064  74.0217 135.3356 0047522 255.8276 103.7605 14.56222427717793"}}, "geometry": {"type": "Point", "coordinates": [-51.153299242591835, 11.792680826367347]}}, {"type": "Feature", "properties": {"norad_id": 38067, "name": "COSMOS 2251 DEB", "group": "cosmos-2251-debris", "lat": 67.12666393946063, "lon": -34.48808101208919, "alt_km": 633.9445049817286, "timestamp": "2025-12-08T10:52:03.346461+00:00", "meta": {"OBJECT_NAME": "COSMOS 2251 DEB", "OBJECT_ID": "1993-036BRZ", "EPOCH": "2025-11-29T04:46:36.876288", "MEAN_MOTION": 14.61044936, "ECCENTRICITY": 0.00691529, "INCLINATION": 74.017, "RA_OF_ASC_NODE": 300.4181, "ARG_OF_PERICENTER": 91.9303, "MEAN_ANOMALY": 288.2542, "EPHEMERIS_TYPE": 0, "CLASSIFICATION_TYPE": "U", "NORAD_CAT_ID": 38067, "ELEMENT_SET_NO": 999, "REV_AT_EPOCH": 62358, "BSTAR": 0.00037425936, "MEAN_MOTION_DOT": 1.87e-05, "MEAN_MOTION_DDOT": 0}, "tle": {"line1": "1 38067U 93036BRZ 25333.19903792  .00001870  00000+0  37426-3 0  9991", "line2": "2 38067  74.0170 300.4181 0069152  91.9303 288.2542 14.61044936623583"}}, "geometry": {"type": "Point", "coordinates": [-34.48808101208919, 67.12666393946063]}}]}